NORAD_CAT_ID,OBJECT_NAME,OBJECT_TYPE,EPOCH,MEAN_MOTION,ECCENTRICITY,INCLINATION,RA_OF_ASC_NODE,ARG_OF_PERICENTER,MEAN_ANOMALY,BSTAR,MEAN_MOTION_DOT,MEAN_MOTION_DDOT,TLE_LINE0,TLE_LINE1,TLE_LINE2,SEMIMAJOR_AXIS,PERIOD,APOGEE,PERIGEE,DECAYED
52466.0,STARLINK-3840,PAYLOAD,2023-04-27 04:58:10,15.08831038,0.0001435,53.2184,81.4505,95.8452,264.2703,4.7602e-05,4.7e-06,0.0,0 STARLINK-3840,1 52466U 22049R   23117.20707174  .00000470  00000-0  47602-4 0  9996,2 52466  53.2184  81.4505 0001435  95.8452 264.2703 15.08831038 54276,6917.908,95.438,540.766,538.78,0.0
52466.0,STARLINK-3840,PAYLOAD,2023-04-27 09:44:20,15.08832911,0.0001419,53.2181,80.559,96.3735,263.7419,6.9081e-05,8.11e-06,0.0,0 STARLINK-3840,1 52466U 22049R   23117.40579141  .00000811  00000-0  69081-4 0  9993,2 52466  53.2181  80.5590 0001419  96.3735 263.7419 15.08832911 54144,6917.902,95.438,540.749,538.785,0.0
52466.0,STARLINK-3840,PAYLOAD,2023-04-28 09:35:08,15.08831613,0.000126,53.2176,76.0993,88.6916,271.4221,7.9123e-05,9.71e-06,0.0,0 STARLINK-3840,1 52466U 22049R   23118.39939906  .00000971  00000-0  79123-4 0  9996,2 52466  53.2176  76.0993 0001260  88.6916 271.4221 15.08831613 54453,6917.906,95.438,540.643,538.899,0.0
52466.0,STARLINK-3840,PAYLOAD,2023-04-28 20:42:49,15.08838917,0.0001093,53.2169,74.0181,98.6105,261.5011,0.00012693,1.733e-05,0.0,0 STARLINK-3840,1 52466U 22049R   23118.86307358  .00001733  00000-0  12693-3 0  9993,2 52466  53.2169  74.0181 0001093  98.6105 261.5011 15.08838917 54526,6917.884,95.438,540.505,538.993,0.0
52466.0,STARLINK-3840,PAYLOAD,2023-04-29 06:15:08,15.08844015,0.000121,53.2175,72.2332,102.1934,257.9193,0.00012523,1.706e-05,0.0,0 STARLINK-3840,1 52466U 22049R   23119.26051109  .00001706  00000-0  12523-3 0  9990,2 52466  53.2175  72.2332 0001210 102.1934 257.9193 15.08844015 54428,6917.868,95.437,540.57,538.896,0.0
52466.0,STARLINK-3840,PAYLOAD,2023-04-30 01:19:46,15.08835541,0.0001269,53.2178,68.6647,101.6178,258.4957,0.00010859,1.441e-05,0.0,0 STARLINK-3840,1 52466U 22049R   23120.05539811  .00001441  00000-0  10859-3 0  9996,2 52466  53.2178  68.6647 0001269 101.6178 258.4957 15.08835541 54706,6917.894,95.438,540.637,538.881,0.0
52466.0,STARLINK-3840,PAYLOAD,2023-04-30 02:55:09,15.08836465,0.0001286,53.2177,68.3674,101.2549,258.8588,0.00011617,1.561e-05,0.0,0 STARLINK-3840,1 52466U 22049R   23120.12163758  .00001561  00000-0  11617-3 0  9993,2 52466  53.2177  68.3674 0001286 101.2549 258.8588 15.08836465 54552,6917.891,95.438,540.646,538.867,0.0
52466.0,STARLINK-3840,PAYLOAD,2023-05-01 05:56:42,15.08843141,0.0001396,53.2181,63.3119,112.1002,248.0139,5.1558e-05,5.33e-06,0.0,0 STARLINK-3840,1 52466U 22049R   23121.24771364  .00000533  00000-0  51558-4 0  9992,2 52466  53.2181  63.3119 0001396 112.1002 248.0139 15.08843141 54881,6917.871,95.437,540.702,538.77,0.0
52466.0,STARLINK-3840,PAYLOAD,2023-05-02 05:47:29,15.08845093,0.000134,53.2178,58.851,104.9331,255.181,0.00011449,1.535e-05,0.0,0 STARLINK-3840,1 52466U 22049R   23122.24131134  .00001535  00000-0  11449-3 0  9995,2 52466  53.2178  58.8510 0001340 104.9331 255.1810 15.08845093 54876,6917.865,95.437,540.657,538.803,0.0
52466.0,STARLINK-3840,PAYLOAD,2023-05-03 04:02:54,15.08834976,0.0001209,53.2182,54.689,103.3952,256.7175,7.2262e-06,-1.73e-06,0.0,0 STARLINK-3840,1 52466U 22049R   23123.16868200 -.00000173  00000-0  72262-5 0  9998,2 52466  53.2182  54.6890 0001209 103.3952 256.7175 15.08834976 55175,6917.896,95.438,540.597,538.924,0.0
52466.0,STARLINK-3840,PAYLOAD,2023-05-03 05:38:17,15.0883162,0.0001093,53.2184,54.3943,98.8183,261.2933,-4.3416e-05,-9.78e-06,0.0,0 STARLINK-3840,1 52466U 22049R   23123.23492607 -.00000978  00000-0 -43416-4 0  9992,2 52466  53.2184  54.3943 0001093  98.8183 261.2933 15.08831620 55028,6917.906,95.438,540.527,539.015,0.0
52466.0,STARLINK-3840,PAYLOAD,2023-05-04 00:41:02,15.10393623,0.0006272,53.2181,50.8158,259.8404,100.1881,0.012981,0.00222213,0.0,0 STARLINK-3840,1 52466U 22049R   23124.02849842  .00222213  00000-0  12981-1 0  9993,2 52466  53.2181  50.8158 0006272 259.8404 100.1881 15.10393623 55306,6913.136,95.339,539.337,530.665,0.0
52466.0,STARLINK-3840,PAYLOAD,2023-05-04 14:00:01,15.08582284,0.0001257,53.2175,48.3397,99.5631,28.2349,0.0065429,0.00104651,0.0,0 STARLINK-3840,1 52466U 22049R   23124.58335648  .00104651  00000-0  65429-2 0  9999,2 52466  53.2175  48.3397 0001257  99.5631  28.2349 15.08582284  1305,6918.668,95.454,541.403,539.664,0.0
52466.0,STARLINK-3840,PAYLOAD,2023-05-04 16:00:01,15.08589251,0.0001291,53.2173,47.9655,99.1976,121.4289,0.0076819,0.00123267,0.0,0 STARLINK-3840,1 52466U 22049R   23124.66668981  .00123267  00000-0  76819-2 0  9996,2 52466  53.2173  47.9655 0001291  99.1976 121.4289 15.08589251 55401,6918.647,95.453,541.405,539.619,0.0
52466.0,STARLINK-3840,PAYLOAD,2023-05-05 00:33:56,15.08750221,9.77e-05,53.2184,46.3648,139.9176,220.1888,-0.00047843,-7.875e-05,0.0,0 STARLINK-3840,1 52466U 22049R   23125.02357309 -.00007875  00000-0 -47843-3 0  9990,2 52466  53.2184  46.3648 0000977 139.9176 220.1888 15.08750221 55457,6918.155,95.443,540.696,539.344,0.0
52466.0,STARLINK-3840,PAYLOAD,2023-05-05 03:44:43,15.08750339,7.39e-05,53.2182,45.769,126.4495,233.6565,-0.00034974,-5.835e-05,0.0,0 STARLINK-3840,1 52466U 22049R   23125.15605790 -.00005835  00000-0 -34974-3 0  9999,2 52466  53.2182  45.7690 0000739 126.4495 233.6565 15.08750339 55312,6918.154,95.443,540.531,539.508,0.0
52466.0,STARLINK-3840,PAYLOAD,2023-05-06 00:24:38,15.09564358,0.0004874,53.2167,41.8981,281.2642,78.7802,-0.01208,-0.00191321,0.0,0 STARLINK-3840,1 52466U 22049R   23126.01711351 -.00191321  00000-0 -12080-1 0  9994,2 52466  53.2167  41.8981 0004874 281.2642  78.7802 15.09564358 55602,6915.667,95.392,540.903,534.162,0.0
52466.0,STARLINK-3840,PAYLOAD,2023-05-06 05:10:44,15.09471825,0.0004341,53.2174,41.0075,277.603,82.447,-0.011981,-0.00189311,0.0,0 STARLINK-3840,1 52466U 22049R   23126.21579158 -.00189311  00000-0 -11981-1 0  9998,2 52466  53.2174  41.0075 0004341 277.6030  82.4470 15.09471825 55637,6915.95,95.398,540.817,534.813,0.0
52466.0,STARLINK-3840,PAYLOAD,2023-05-06 16:00:00,15.08441625,0.0001375,53.2169,38.9907,95.2102,193.3464,-0.0037981,-0.00059584,0.0,0 STARLINK-3840,1 52466U 22049R   23126.66667824 -.00059584  00000-0 -37981-2 0  9992,2 52466  53.2169  38.9907 0001375  95.2102 193.3464 15.08441625  1302,6919.098,95.463,541.915,540.012,0.0
52466.0,STARLINK-3840,PAYLOAD,2023-05-07 00:16:00,15.08569072,0.0001356,53.2182,37.4441,82.2096,277.905,-0.00048162,-7.887e-05,0.0,0 STARLINK-3840,1 52466U 22049R   23127.01111407 -.00007887  00000-0 -48162-3 0  9996,2 52466  53.2182  37.4441 0001356  82.2096 277.9050 15.08569072 55756,6918.709,95.455,541.512,539.635,0.0
52466.0,STARLINK-3840,PAYLOAD,2023-05-07 06:37:38,15.08563266,0.0001466,53.218,36.2563,92.7992,267.3168,-0.0010978,-0.00017585,0.0,0 STARLINK-3840,1 52466U 22049R   23127.27614017 -.00017585  00000-0 -10978-2 0  9998,2 52466  53.2180  36.2563 0001466  92.7992 267.3168 15.08563266 55795,6918.726,95.455,541.606,539.577,0.0
52466.0,STARLINK-3840,PAYLOAD,2023-05-08 04:53:28,15.08411754,0.0001335,53.2177,32.0947,85.8491,274.2654,-0.0013998,-0.00022237,0.0,0 STARLINK-3840,1 52466U 22049R   23128.20380446 -.00022237  00000-0 -13998-2 0  9993,2 52466  53.2177  32.0947 0001335  85.8491 274.2654 15.08411754 55930,6919.19,95.465,541.978,540.131,0.0
52466.0,STARLINK-3840,PAYLOAD,2023-05-08 06:28:54,15.0840103,0.0001176,53.2182,31.7973,86.6427,273.4699,-0.0015272,-0.00024221,0.0,0 STARLINK-3840,1 52466U 22049R   23128.27007378 -.00024221  00000-0 -15272-2 0  9992,2 52466  53.2182  31.7973 0001176  86.6427 273.4699 15.08401030 55949,6919.222,95.465,541.901,540.274,0.0
52466.0,STARLINK-3840,PAYLOAD,2023-05-08 20:47:42,15.08328551,0.0001512,53.2183,29.1241,120.5581,239.556,-0.0014013,-0.00022211,0.0,0 STARLINK-3840,1 52466U 22049R   23128.86646306 -.00022211  00000-0 -14013-2 0  9996,2 52466  53.2183  29.1241 0001512 120.5581 239.5560 15.08328551 56039,6919.444,95.47,542.355,540.263,0.0
52466.0,STARLINK-3840,PAYLOAD,2023-05-08 22:23:07,15.08324028,0.0002597,53.2186,28.8264,152.8503,207.2625,-0.0014265,-0.00022603,0.0,0 STARLINK-3840,1 52466U 22049R   23128.93272645 -.00022603  00000-0 -14265-2 0  9999,2 52466  53.2186  28.8264 0002597 152.8503 207.2625 15.08324028 55880,6919.458,95.47,543.12,539.526,0.0
52466.0,STARLINK-3840,PAYLOAD,2023-05-09 03:09:26,15.08268278,0.0001379,53.2188,27.9335,74.4741,285.6404,-0.0015862,-0.00025053,0.0,0 STARLINK-3840,1 52466U 22049R   23129.13156217 -.00025053  00000-0 -15862-2 0  9994,2 52466  53.2188  27.9335 0001379  74.4741 285.6404 15.08268278 55914,6919.628,95.474,542.448,540.539,0.0
52466.0,STARLINK-3840,PAYLOAD,2023-05-10 04:36:25,15.08099271,0.0001041,53.2186,23.1809,102.1127,257.9981,-0.0012907,-0.00020359,0.0,0 STARLINK-3840,1 52466U 22049R   23130.19195870 -.00020359  00000-0 -12907-2 0  9991,2 52466  53.2186  23.1809 0001041 102.1127 257.9981 15.08099271 56074,6920.145,95.484,542.731,541.29,0.0
52466.0,STARLINK-3840,PAYLOAD,2023-05-10 23:41:39,15.08045283,9.94e-05,53.2176,19.6161,106.2247,253.8855,-0.00069316,-0.00011064,0.0,0 STARLINK-3840,1 52466U 22049R   23130.98725718 -.00011064  00000-0 -69316-3 0  9998,2 52466  53.2176  19.6161 0000994 106.2247 253.8855 15.08045283 56190,6920.311,95.488,542.863,541.488,0.0
52466.0,STARLINK-3840,PAYLOAD,2023-05-11 23:33:14,15.07993147,8.72e-05,53.2182,15.1585,102.7485,257.3604,-9.4915e-06,-4.33e-06,0.0,0 STARLINK-3840,1 52466U 22049R   23131.98141373 -.00000433  00000-0 -94915-5 0  9991,2 52466  53.2182  15.1585 0000872 102.7485 257.3604 15.07993147 56504,6920.47,95.491,542.939,541.732,0.0
52466.0,STARLINK-3840,PAYLOAD,2023-05-12 23:24:48,15.08000796,7.87e-05,53.218,10.7012,106.2054,253.9024,0.0001531,2.097e-05,0.0,0 STARLINK-3840,1 52466U 22049R   23132.97556190  .00002097  00000-0  15310-3 0  9994,2 52466  53.2180  10.7012 0000787 106.2054 253.9024 15.08000796 56658,6920.447,95.491,542.856,541.767,0.0
